[{"OBJECT_NAME":"ONEWEB-0704","OBJECT_ID":"2024-188R","EPOCH":"2025-07-27T09:32:11.707872","MEAN_MOTION":13.10370611,"ECCENTRICITY":0.0001636,"INCLINATION":87.8826,"RA_OF_ASC_NODE":100.9794,"ARG_OF_PERICENTER":43.3607,"MEAN_ANOMALY":316.7649,"EPHEMERIS_TYPE":0,"CLASSIFICATION_TYPE":"U","NORAD_CAT_ID":61609,"ELEMENT_SET_NO":999,"REV_AT_EPOCH":4075,"BSTAR":0.00096247,"MEAN_MOTION_DOT":3.49e-6,"MEAN_MOTION_DDOT":0},{"OBJECT_NAME":"ONEWEB-0705","OBJECT_ID":"2024-188S","EPOCH":"2025-07-27T11:29:18.372768","MEAN_MOTION":13.10369806,"ECCENTRICITY":6.2e-5,"INCLINATION":87.8794,"RA_OF_ASC_NODE":101.0071,"ARG_OF_PERICENTER":62.558,"MEAN_ANOMALY":297.5611,"EPHEMERIS_TYPE":0,"CLASSIFICATION_TYPE":"U","NORAD_CAT_ID":61610,"ELEMENT_SET_NO":999,"REV_AT_EPOCH":3293,"BSTAR":0.00033284,"MEAN_MOTION_DOT":1.29e-6,"MEAN_MOTION_DDOT":0},{"OBJECT_NAME":"ONEWEB-0706","OBJECT_ID":"2024-188T","EPOCH":"2025-07-27T11:07:44.313312","MEAN_MOTION":13.10372212,"ECCENTRICITY":0.0001544,"INCLINATION":87.8807,"RA_OF_ASC_NODE":101.0365,"ARG_OF_PERICENTER":66.5721,"MEAN_ANOMALY":293.5568,"EPHEMERIS_TYPE":0,"CLASSIFICATION_TYPE":"U","NORAD_CAT_ID":61611,"ELEMENT_SET_NO":999,"REV_AT_EPOCH":4085,"BSTAR":0.0017761,"MEAN_MOTION_DOT":6.33e-6,"MEAN_MOTION_DDOT":0},{"OBJECT_NAME":"ONEWEB-0707","OBJECT_ID":"2024-188U","EPOCH":"2025-07-27T14:57:18.887328","MEAN_MOTION":13.10372546,"ECCENTRICITY":0.0001552,"INCLINATION":87.8796,"RA_OF_ASC_NODE":100.9708,"ARG_OF_PERICENTER":59.3469,"MEAN_ANOMALY":300.7811,"EPHEMERIS_TYPE":0,"CLASSIFICATION_TYPE":"U","NORAD_CAT_ID":61612,"ELEMENT_SET_NO":999,"REV_AT_EPOCH":4081,"BSTAR":0.0014656,"MEAN_MOTION_DOT":5.24e-6,"MEAN_MOTION_DDOT":0},{"OBJECT_NAME":"ONEWEB-0708","OBJECT_ID":"2024-188V","EPOCH":"2025-07-27T11:43:38.571168","MEAN_MOTION":13.10371224,"ECCENTRICITY":0.0001067,"INCLINATION":87.8843,"RA_OF_ASC_NODE":101.0257,"ARG_OF_PERICENTER":64.4283,"MEAN_ANOMALY":295.6955,"EPHEMERIS_TYPE":0,"CLASSIFICATION_TYPE":"U","NORAD_CAT_ID":61613,"ELEMENT_SET_NO":999,"REV_AT_EPOCH":4077,"BSTAR":-0.001026,"MEAN_MOTION_DOT":-3.45e-6,"MEAN_MOTION_DDOT":0}]
