ONEWEB-0704             
1 61609U 24188R   25208.39735773  .00000349  00000+0  96247-3 0  9992
2 61609  87.8826 100.9794 0001636  43.3607 316.7649 13.10370611 40757
ONEWEB-0705             
1 61610U 24188S   25208.47868487  .00000129  00000+0  33284-3 0  9990
2 61610  87.8794 101.0071 0000620  62.5580 297.5611 13.10369806 32938
ONEWEB-0706             
1 61611U 24188T   25208.46370733  .00000633  00000+0  17761-2 0  9993
2 61611  87.8807 101.0365 0001544  66.5721 293.5568 13.10372212 40859
ONEWEB-0707             
1 61612U 24188U   25208.62313527  .00000524  00000+0  14656-2 0  9999
2 61612  87.8796 100.9708 0001552  59.3469 300.7811 13.10372546 40812
ONEWEB-0708             
1 61613U 24188V   25208.48864087 -.00000345  00000+0 -10260-2 0  9996
2 61613  87.8843 101.0257 0001067  64.4283 295.6955 13.10371224 40777
